{
  "norad_id": 66137,
  "name": "STARLINK-35576",
  "history": [
    {
      "epoch": "2026-03-28T21:15:32.548896Z",
      "apogee_km": 475.86135638005817,
      "perigee_km": 474.37981915473574,
      "latitude_deg": -1.3760330022704208e-05,
      "longitude_deg": 164.98075562208035,
      "height_km": 475.8238734390583,
      "semi_major_axis_km": 6853.257587767397,
      "eccentricity": 0.00010809,
      "inclination_deg": 53.1599,
      "raan_deg": 310.1662,
      "arg_perigee_deg": 74.7292,
      "mean_anomaly_deg": 285.3828,
      "mean_motion_rev_day": 15.30231644
    },
    {
      "epoch": "2026-03-29T00:23:38.971392Z",
      "apogee_km": 475.81916450736753,
      "perigee_km": 474.6239387759606,
      "latitude_deg": -4.0028797228440256e-05,
      "longitude_deg": 117.21762091898955,
      "height_km": 476.15198052904003,
      "semi_major_axis_km": 6853.358551641663,
      "eccentricity": 8.72e-05,
      "inclination_deg": 53.1591,
      "raan_deg": 309.5586,
      "arg_perigee_deg": 93.0608,
      "mean_anomaly_deg": 267.0492,
      "mean_motion_rev_day": 15.30197829
    },
    {
      "epoch": "2026-03-29T23:54:26.896896Z",
      "apogee_km": 475.7041949674176,
      "perigee_km": 474.651525804863,
      "latitude_deg": -4.776823701880845e-05,
      "longitude_deg": 119.00276861315474,
      "height_km": 476.04932689871254,
      "semi_major_axis_km": 6853.31486038614,
      "eccentricity": 7.68e-05,
      "inclination_deg": 53.1589,
      "raan_deg": 305.0091,
      "arg_perigee_deg": 87.0405,
      "mean_anomaly_deg": 273.0683,
      "mean_motion_rev_day": 15.30212462
    },
    {
      "epoch": "2026-03-29T23:54:26.897760Z",
      "apogee_km": 475.7041949674176,
      "perigee_km": 474.651525804863,
      "latitude_deg": -4.7779287080103916e-05,
      "longitude_deg": 119.00276499507625,
      "height_km": 476.0493269002706,
      "semi_major_axis_km": 6853.31486038614,
      "eccentricity": 7.68e-05,
      "inclination_deg": 53.1589,
      "raan_deg": 305.0091,
      "arg_perigee_deg": 87.0405,
      "mean_anomaly_deg": 273.0683,
      "mean_motion_rev_day": 15.30212462
    }
  ]
}